STARLINK-2063
1 28553C 21041A   21325.16320987  .00000172  00000-0  11529-4 0  3257
2 28553  53.0546 337.5004 0001823  50.9656 238.3612 15.06401487    19
